OBJECT_NAME,OBJECT_ID,EPOCH,MEAN_MOTION,ECCENTRICITY,INCLINATION,RA_OF_ASC_NODE,ARG_OF_PERICENTER,MEAN_ANOMALY,EPHEMERIS_TYPE,CLASSIFICATION_TYPE,NORAD_CAT_ID,ELEMENT_SET_NO,REV_AT_EPOCH,BSTAR,MEAN_MOTION_DOT,MEAN_MOTION_DDOT
WREN-1,2024-149L,2026-04-25T18:42:55.319616,15.39490954,.00057118,97.3765,199.4264,97.5213,262.6682,0,U,60478,999,9425,.54177808E-3,.21218E-3,0
TOMORROW-S1,2024-149M,2026-04-26T11:35:05.309376,15.31983746,.0004204,97.3753,197.1470,84.0957,276.0764,0,U,60479,999,9417,.29572E-3,.9058E-4,0
FLOCK 4BE-18,2024-149N,2026-04-25T19:23:00.445056,15.40140489,.00050478,97.3728,199.0589,95.2644,264.9178,0,U,60480,999,9424,.48516664E-3,.19395E-3,0
FLOCK 4BE-7,2024-149P,2026-04-26T11:17:15.645408,15.38172269,.0004259,97.3761,199.1849,99.1133,261.0594,0,U,60481,999,9429,.71052E-3,.26693E-3,0
FLOCK 4BE-26,2024-149S,2026-04-26T11:21:52.070976,15.55283279,.0002905,97.3686,200.3962,143.5713,216.5739,0,U,60484,999,9439,.24848E-2,.171623E-2,0
TOMORROW-S2,2024-149T,2026-04-26T10:45:48.692736,15.31989860,.0004596,97.3819,197.5535,99.0849,261.0913,0,U,60485,999,9416,.32105E-3,.9844E-4,0
FLOCK 4BE-36,2024-149U,2026-04-25T17:51:50.013504,15.41041704,.00051648,97.3742,199.6130,103.0188,257.1635,0,U,60486,999,9427,.42094802E-3,.17321E-3,0
FLOCK 4BE-25,2024-149V,2026-04-26T11:57:51.264000,15.37471075,.0003709,97.3799,199.3530,98.3479,261.8187,0,U,60487,999,9429,.45419E-3,.16628E-3,0
FLOCK 4BE-31,2024-149W,2026-04-25T18:00:51.389856,15.42071355,.00040527,97.3798,200.3424,106.1292,254.0402,0,U,60488,999,9429,.48309031E-3,.20587E-3,0
FLOCK 4BE-20,2024-149X,2026-04-26T12:01:12.819648,15.36686205,.0005297,97.3700,198.3657,99.4251,260.7593,0,U,60489,999,9427,.51455E-3,.18385E-3,0
FLOCK 4BE-23,2024-149Y,2026-04-25T18:17:41.925120,15.36296903,.00051414,97.3780,197.9725,107.3195,252.8611,0,U,60490,999,9414,.38908443E-3,.13701E-3,0
FLOCK 4BE-15,2024-149Z,2026-04-26T10:54:03.913344,15.48822841,.0005585,97.3712,200.3302,172.7157,187.4176,0,U,60491,999,9439,.2408E-2,.131449E-2,0
FLOCK 4BE-17,2024-149AA,2026-04-26T12:43:51.458016,15.38255587,.0004461,97.3776,199.5531,97.9496,262.2255,0,U,60492,999,9431,.51895E-3,.19509E-3,0
NUSAT-50 (NANCY ROMAN),2024-149AB,2026-04-26T11:31:57.031680,15.28945292,.0003962,97.3790,198.1324,45.5844,314.5720,0,U,60493,999,9422,.40062E-3,.11196E-3,0
FLOCK 4BE-22,2024-149AC,2026-04-26T11:48:58.572576,15.39570692,.0005066,97.3732,199.6282,103.1318,257.0493,0,U,60494,999,9434,.51749E-3,.20311E-3,0
FLOCK 4BE-34,2024-149AD,2026-04-26T12:15:08.115840,15.39642314,.0005383,97.3781,200.4340,110.0836,250.0990,0,U,60495,999,9437,.51252E-3,.20164E-3,0
TYCHE,2024-149AE,2026-04-26T11:01:12.073728,15.25821851,.0004716,97.3761,194.9705,102.0450,258.1317,0,U,60496,999,9401,.22073E-3,.5574E-4,0
FLOCK 4BE-32,2024-149AF,2026-04-25T19:02:26.978784,15.40353946,.00053042,97.3719,199.2283,109.9074,250.2745,0,U,60497,999,9426,.41710369E-3,.16775E-3,0
NUSAT-48 (HENRIETTA LEAVITT),2024-149AG,2026-04-26T11:42:44.629056,15.29919796,.0005483,97.3901,198.2565,100.5999,259.5859,0,U,60498,999,9423,.42433E-3,.12228E-3,0
FLOCK 4BE-30,2024-149AH,2026-04-26T12:05:03.865344,15.45820230,.0003599,97.3790,200.7459,167.2904,192.8437,0,U,60499,999,9376,.2242E-2,.110014E-2,0
NUSAT-49 (KLARA DAN VON NEUMANN),2024-149AJ,2026-04-26T11:17:15.406944,15.29953851,.0004299,97.3781,198.1075,110.4708,249.6994,0,U,60500,999,9422,.39834E-3,.11484E-3,0
FLOCK 4BE-11,2024-149AK,2026-04-26T12:44:26.094048,15.41237641,.000536,97.3700,200.1501,107.4491,252.7342,0,U,60501,999,9439,.53099E-3,.22027E-3,0
YAM-7,2024-149AN,2026-04-26T12:05:49.310016,15.31082833,.0005043,97.3788,196.9918,112.7528,247.4246,0,U,60504,999,9414,.31174E-3,.9289E-4,0
FLOCK 4BE-24,2024-149AP,2026-04-25T16:08:47.626080,15.41090252,.00054611,97.3717,199.5299,118.1449,242.0350,0,U,60505,999,9427,.47091046E-3,.19424E-3,0
LUR-1,2024-149AQ,2026-04-25T18:47:25.513152,15.29398305,.00055816,97.3746,195.0173,122.6360,237.5420,0,U,60506,999,9396,.25874567E-3,.7304E-4,0
TANAGER-1,2024-149AR,2026-04-25T19:35:11.553216,15.44257878,.00075971,97.3468,209.7998,130.0750,230.1165,0,U,60507,999,9495,.31949582E-3,.14624E-3,0
EAGLEEYE,2024-149AS,2026-04-26T05:46:00.782112,15.62991716,.0003305,97.3728,207.0536,113.2757,246.8850,0,U,60508,999,9480,.83395E-3,.76041E-3,0
FLOCK 4BE-29,2024-149AT,2026-04-26T12:03:49.831776,15.42429026,.0004285,97.3806,201.6676,120.8489,239.3180,0,U,60509,999,9444,.54118E-3,.23359E-3,0
TRANSPORTER-11 OBJECT AU,2024-149AU,2026-04-25T19:09:09.729792,15.38728964,.00051635,97.3729,199.1610,115.2781,244.9000,0,U,60510,999,9425,.39966672E-3,.15232E-3,0
FLOCK 4BE-2,2024-149AV,2026-04-26T06:47:49.825248,15.47582305,.0004807,97.3817,202.3191,122.4047,237.7668,0,U,60511,999,9446,.11168E-2,.57796E-3,0
